ISS (ZARYA)             
1 25544U 98067A   26167.09292088  .00007536  00000+0  14355-3 0  9991
2 25544  51.6337 305.5091 0004806 191.3253 168.7628 15.49253146571586
OSCAR 7 (AO-7)          
1 07530U 74089B   26166.94772440 -.00000037  00000+0  56046-4 0  9996
2 07530 101.9900 180.1815 0012561 132.4491 296.7122 12.53698099360369
PHASE 3B (AO-10)        
1 14129U 83058B   26166.42721388  .00000161  00000+0  00000+0 0  9993
2 14129  25.9108 219.8563 6011456 115.1838 317.1369  2.05868643295455
UOSAT 2 (UO-11)         
1 14781U 84021B   26167.21457125  .00000980  00000+0  10535-3 0  9998
2 14781  97.8058 132.8001 0007545 175.7065 184.4219 14.90781223256983
LUSAT (LO-19)           
1 20442U 90005G   26167.13543233  .00000094  00000+0  50454-4 0  9996
2 20442  98.8851 188.9120 0011065 204.3265 155.7398 14.34122929902249
EYESAT A (AO-27)        
1 22825U 93061C   26167.16078916  .00000088  00000+0  50437-4 0  9996
2 22825  98.6881 234.5747 0009533 102.3705 257.8545 14.30942024706852
ITAMSAT (IO-26)         
1 22826U 93061D   26167.00070186  .00000084  00000+0  48660-4 0  9992
2 22826  98.6828 234.3320 0010096  88.1549 272.0790 14.31368850707146
RADIO ROSTO (RS15)      
1 23439U 94085A   26167.05171200 -.00000054  00000+0 -32993-3 0  9994
2 23439  64.8179 305.0526 0155919   4.0859 356.1299 11.27583453295779
JAS-2 (FO-29)           
1 24278U 96046B   26166.83242779  .00000013  00000+0  45763-4 0  9993
2 24278  98.5240  15.8902 0350884  99.9379 264.1549 13.53274294472983
TECHSAT 1B (GO-32)      
1 25397U 98043D   26167.22147388  .00000030  00000+0  33141-4 0  9995
2 25397  99.0067 159.9557 0001002 165.2007 194.9200 14.24428194451198
PCSAT (NO-44)           
1 26931U 01043C   26166.62271618  .00000084  00000+0  62366-4 0  9991
2 26931  67.0507 248.3182 0006076 264.5919  95.4489 14.31955610290220
SAUDISAT 1C (SO-50)     
1 27607U 02058C   26167.07637918  .00000851  00000+0  11773-3 0  9995
2 27607  64.5510 132.4221 0075289 262.6786  96.5759 14.83044860264290
CUTE-1 (CO-55)          
1 27844U 03031E   26166.98345551  .00000235  00000+0  12048-3 0  9990
2 27844  98.6736 175.5574 0009449 181.4906 178.6246 14.24335068191501
CUBESAT XI-IV (CO-57)   
1 27848U 03031J   26166.97130938  .00000200  00000+0  10702-3 0  9991
2 27848  98.6765 175.2591 0008944 200.7616 159.3200 14.23620242191208
MOZHAETS 4 (RS22)       
1 27939U 03042A   26167.20466457  .00000437  00000+0  75567-4 0  9992
2 27939  98.3461 351.5356 0009956 273.5563 206.8206 14.73464813215408
CUBESAT XI-V            
1 28895U 05043F   26166.90778411  .00001212  00000+0  19838-3 0  9999
2 28895  98.2984 322.5028 0013554 204.9214 155.1340 14.72628612101567
CUTE-1.7+APD II (CO-65) 
1 32785U 08021C   26167.12182992  .00003824  00000+0  24291-3 0  9999
2 32785  97.8271 148.5182 0009903  42.4099 317.7893 15.09443411985034
SEEDS II (CO-66)        
1 32791U 08021J   26166.96044238  .00015094  00000+0  47997-3 0  9997
2 32791  97.7511 164.7995 0001226   8.5431 351.5831 15.32715926987109
YUBILEINY (RS30)        
1 32953U 08025A   26167.13272579  .00000094  00000+0  60817-3 0  9992
2 32953  82.5038 356.0966 0018900 316.2604  43.6978 12.43179641819569
KKS-1 (KISEKI)          
1 33499U 09002H   26167.04220639  .00001172  00000+0  15056-3 0  9997
2 33499  98.1190  89.4663 0006601 300.3744  59.6816 14.83121648936021
SWISSCUBE               
1 35932U 09051B   26167.00556454  .00000837  00000+0  17487-3 0  9995
2 35932  98.4037  74.8732 0005883 207.1556 152.9338 14.62479724888984
BEESAT-1                
1 35933U 09051C   26167.01438479  .00000698  00000+0  14987-3 0  9990
2 35933  98.3965  74.5202 0004159 221.4762 138.6123 14.61718847889015
ITUPSAT1                
1 35935U 09051E   26166.73019578  .00000641  00000+0  14235-3 0  9999
2 35935  98.4050  73.4251 0006212 239.3695 120.6892 14.60438795888529
XIWANG-1 (HOPE-1)       
1 36122U 09072B   26167.17989468 -.00000345  00000+0 -78637-3 0  9993
2 36122 100.4025 121.0283 0006849 234.2631 125.7846 13.16437620792872
O/OREOS (USA 219)       
1 37224U 10062C   26167.19160789  .00001939  00000+0  18866-3 0  9993
2 37224  71.9714  82.5947 0012532  65.2237 295.0236 14.93741110116491
JUGNU                   
1 37839U 11058B   26167.11854749  .00000400  00000+0  69482-4 0  9992
2 37839  19.9617 314.9218 0018636  64.4642 109.1076 14.13776503758879
SRMSAT                  
1 37841U 11058D   26167.08586323  .00000355  00000+0  48745-4 0  9999
2 37841  19.9722  66.1331 0011815 191.4739 210.8496 14.11575350757668
STRAND-1                
1 39090U 13009E   26167.08130302  .00000218  00000+0  87619-4 0  9998
2 39090  98.3921 347.3429 0007671 229.0747 130.9776 14.37162720696905
ZACUBE-1 (TSHEPISOSAT)  
1 39417U 13066B   26167.14083162  .00002688  00000+0  21090-3 0  9995
2 39417  97.8082 129.4722 0040689 251.3313 108.3491 15.01184047680575
GOMX-1                  
1 39430U 13066Q   26167.16456519  .00001754  00000+0  26749-3 0  9991
2 39430  97.6476   7.6922 0130151  80.7820 280.8082 14.69457746669767
